BEESAT-4                
1 41619U 16040W   21277.39001305  .00004584  00000-0  18004-3 0  9999
2 41619  97.2585 330.3994 0008994 312.2339  47.8136 15.26155026281624
CAS-2T & KS-1Q          
1 41847U 16066G   21277.42202399  .00000246  00000-0  48172-4 0  9991
2 41847  98.5897 336.9427 0363969 255.0275 101.0359 14.38244479257546
NAYIF-1 (EO-88)         
1 42017U 17008BX  21277.43050233  .00005325  00000-0  19221-3 0  9992
2 42017  97.3063 343.0641 0007501  85.2569 274.9527 15.28896058257904
ZHUHAI-1 02 (CAS-4B)    
1 42759U 17034B   21277.55947546  .00001291  00000-0  90428-4 0  9996
2 42759  43.0187 301.1808 0006966 130.1728   8.8719 15.10412111237644
ZHUHAI-1 01 (CAS-4A)    
1 42761U 17034D   21277.54344791  .00001358  00000-0  94201-4 0  9998
2 42761  43.0191 300.2440 0007239 131.5974   3.8547 15.10499661237645
MAX VALIER SAT          
1 42778U 17036P   21277.50910124  .00002761  00000-0  11654-3 0  9992
2 42778  97.2444 322.5041 0012824 145.0980 215.1101 15.24021358237892
RADFXSAT (FOX-1B)       
1 43017U 17073E   21277.27695639  .00002149  00000-0  17059-3 0  9990
2 43017  97.6943 176.8940 0252930 305.4806  52.3039 14.79806881209215
FOX-1D (AO-92)          
1 43137U 18004AC  21277.15606355  .00003692  00000-0  14752-3 0  9993
2 43137  97.3989 350.0562 0008716 177.1702 182.9587 15.25725679207236
DIWATA-2B               
1 43678U 18084H   21277.58540349  .00000567  00000-0  61941-4 0  9999
2 43678  97.9370  43.5150 0011137  55.9039 304.3253 14.91801463159706
ES'HAIL 2               
1 43700U 18090A   21277.32340928  .00000142  00000-0  00000-0 0  9999
2 43700   0.0142 133.1725 0002411  91.3588 290.9578  1.00274180 10461
FOX-1CLIFF (AO-95)      
1 43770U 18099N   21277.45281676  .00000807  00000-0  77972-4 0  9997
2 43770  97.6552 345.1845 0015555  56.9470 303.3243 14.95452650154749
ITASAT 1                
1 43786U 18099AE  21277.41810961  .00001045  00000-0  98695-4 0  9995
2 43786  97.6578 345.9044 0016301  50.6293 309.6369 14.95733466154775
JY1SAT (JO-97)          
1 43803U 18099AX  21277.16246582  .00000699  00000-0  67280-4 0  9999
2 43803  97.6539 345.3957 0016217  50.7438 309.5220 14.96006803154748
UWE-4                   
1 43880U 18111E   21277.54090717  .00001097  00000-0  10019-3 0  9998
2 43880  97.6764 183.3656 0013557  97.9026 262.3735 14.97009630151408
NEXUS (FO-99)           
1 43937U 19003F   21277.36977273  .00004227  00000-0  16443-3 0  9998
2 43937  97.1668 316.1613 0022300 350.6821   9.4002 15.26320496150872
PSAT2 (NO-104)          
1 44354U 19036R   21276.97559726  .00027321  00000-0  34738-3 0  9990
2 44354  28.5264 121.5774 0311915  15.8493 345.1616 15.17101914125459
BRICSAT2 (NO-103)       
1 44355U 19036S   21277.52730773  .00081331 -44901-5  77212-3 0  9995
2 44355  28.5257  52.6045 0232521 127.8040 234.3853 15.38180120126197
JAISAT-1                
1 44419U 19038F   21277.43025140  .00003105  00000-0  17327-3 0  9993
2 44419  97.6006 241.8225 0019259 299.2326  60.6980 15.14165724124287
DUCHIFAT-3              
1 44854U 19089C   21277.12807474  .00001348  00000-0  11355-3 0  9998
2 44854  36.9665 177.8853 0009510 298.5369  61.4417 14.99665623 99426
CAS-6 (TO-108)          
1 44881U 19093C   21277.47953385  .00000164  00000-0  27658-4 0  9993
2 44881  97.9175 355.0863 0013901 301.9282  58.0577 14.81487164 96870
RS-44 & BREEZE-KM R/B   
1 44909U 19096E   21277.61316771 -.00000001  00000-0 -46493-4 0  9995
2 44909  82.5244  40.2661 0217253 197.6426 161.7047 12.79711215 82784
ORBITAL FACTORY 2 (OF-2)
1 45113U 19071C   21277.56441355  .00007681  00000-0  22049-3 0  9996
2 45113  51.6405 228.1282 0011063 332.5777  27.4622 15.36788450 93942
HUSKYSAT-1 (HO-107)     
1 45119U 19071J   21277.57628103  .00006800  00000-0  19681-3 0  9991
2 45119  51.6409 227.4487 0010498 329.2062  30.8304 15.36737706 93945
BY70-2                  
1 45857U 20042B   21277.43163548  .00002201  00000-0  31679-3 0  9994
2 45857  97.9782 352.0377 0010456 215.3944 144.6588 14.77345281 67634
SALSAT                  
1 46495U 20068K   21277.60719201  .00000666  00000-0  53118-4 0  9999
2 46495  97.6991 214.4924 0018953  64.9972 295.3218 15.03577330 55734
BY70-3                  
1 46839U 20079N   21277.57670900  .00007696  00000-0  23176-3 0  9991
2 46839  97.2319 349.2739 0007651 162.3236 304.0647 15.34589226 50938
RADFXSAT-2 (AO-109)     
1 47311U 21002C   21277.22403840  .00002709  00000-0  12686-3 0  9997
2 47311  60.6855 243.9006 0041199 103.0710 257.4980 15.22085807 39429
UVSQ-SAT                
1 47438U 21006AB  21277.42008494  .00001934  00000-0  11168-3 0  9992
2 47438  97.4767 336.6453 0014272  83.4768 276.8088 15.13429859 38535
DIY-1 (ARDUIQUBE)       
1 47963U 21022AH  21277.54998140  .00005521  00000-0  36274-3 0  9993
2 47963  97.5467 177.9272 0018026 295.3235  64.6126 15.07883712 28333
